{
    "links": {
        "self": "http://www.neowsapp.com/rest/v1/neo/3468491?api_key=iIulBulltgU6a56xZRHN4H3l9WmuAYTsLGpBGhQ2"
    },
    "id": "3468491",
    "neo_reference_id": "3468491",
    "name": "(2009 SR103)",
    "designation": "2009 SR103",
    "nasa_jpl_url": "http://ssd.jpl.nasa.gov/sbdb.cgi?sstr=3468491",
    "absolute_magnitude_h": 25.2,
    "estimated_diameter": {
        "kilometers": {
            "estimated_diameter_min": 0.0242412481,
            "estimated_diameter_max": 0.0542050786
        },
        "meters": {
            "estimated_diameter_min": 24.2412481101,
            "estimated_diameter_max": 54.2050786336
        },
        "miles": {
            "estimated_diameter_min": 0.0150628086,
            "estimated_diameter_max": 0.0336814639
        },
        "feet": {
            "estimated_diameter_min": 79.5316564495,
            "estimated_diameter_max": 177.8381901842
        }
    },
    "is_potentially_hazardous_asteroid": false,
    "close_approach_data": [
        {
            "close_approach_date": "2009-10-05",
            "close_approach_date_full": "2009-Oct-05 10:47",
            "epoch_date_close_approach": 1254739620000,
            "relative_velocity": {
                "kilometers_per_second": "9.0458479494",
                "kilometers_per_hour": "32565.0526178522",
                "miles_per_hour": "20234.6572780204"
            },
            "miss_distance": {
                "astronomical": "0.0528316641",
                "lunar": "20.5515173349",
                "kilometers": "7903504.417915467",
                "miles": "4911009.9187367646"
            },
            "orbiting_body": "Earth"
        }
    ],
    "orbital_data": {
        "orbit_id": "8",
        "orbit_determination_date": "2017-04-06 08:59:49",
        "first_observation_date": "2009-09-25",
        "last_observation_date": "2009-10-01",
        "data_arc_in_days": 6,
        "observations_used": 21,
        "orbit_uncertainty": "8",
        "minimum_orbit_intersection": ".0527657",
        "jupiter_tisserand_invariant": "4.485",
        "epoch_osculation": "2455101.5",
        "eccentricity": ".3614875778988708",
        "semi_major_axis": "1.484404183448479",
        "inclination": "10.43040603284618",
        "ascending_node_longitude": ".2124114407600361",
        "orbital_period": "660.5819175102606",
        "perihelion_distance": ".9478105105507374",
        "perihelion_argument": "59.279715335969",
        "aphelion_distance": "2.020997856346221",
        "perihelion_time": "2455149.906470660603",
        "mean_anomaly": "333.6197298534948",
        "mean_motion": ".5449740455458474",
        "equinox": "J2000",
        "orbit_class": {
            "orbit_class_type": "APO",
            "orbit_class_description": "Near-Earth asteroid orbits which cross the Earth’s orbit similar to that of 1862 Apollo",
            "orbit_class_range": "a (semi-major axis) > 1.0 AU; q (perihelion) < 1.017 AU"
        }
    },
    "is_sentry_object": false
}